POLYITAN-1              
1 40042U 14033AJ  26197.01905086  .00011154  00000+0  33885-3 0  9996
2 40042  98.0929 226.0285 0007858  61.8331 298.3703 15.34238045658011
TIGRISAT                
1 40043U 14033AK  26196.88350254  .00000717  00000+0  88309-4 0  9997
2 40043  97.7865 346.2444 0048581 342.0708  17.8792 14.85250731649887
AEROCUBE 6A             
1 40045U 14033AM  26196.94219245  .00003183  00000+0  26868-3 0  9991
2 40045  97.7250   3.5917 0036256 278.3903  81.3210 14.98348152650926
AEROCUBE 6B             
1 40046U 14033AN  26196.91654449  .00002560  00000+0  20883-3 0  9997
2 40046  97.7202   3.4151 0038082 267.4918  92.1945 14.99801962651062
CANX-4                  
1 40055U 14034C   26196.11735289  .00000420  00000+0  61209-4 0  9993
2 40055  98.3083  72.4512 0011424 283.1173  76.8763 14.81311066648663
CANX-5                  
1 40056U 14034D   26196.45319819  .00000410  00000+0  59895-4 0  9995
2 40056  98.3085  72.8445 0011413 282.1246  77.8687 14.81328706639523
UKUBE-1                 
1 40074U 14037F   26196.92229536  .00004031  00000+0  22670-3 0  9999
2 40074  98.4241 203.2234 0003262  86.6441 273.5160 15.13955912652900
BRITE-PL2 (HEWELIUSZ)   
1 40119U 14049B   26197.09335016  .00000468  00000+0  48579-4 0  9999
2 40119  97.9120 309.3212 0014249  19.2816 340.8940 14.94688246645760
AEROCUBE 5C             
1 40965U 15058B   26196.93532284  .00001741  00000+0  16158-3 0  9999
2 40965  64.7657 173.1454 0132384  52.1672 309.1334 14.91579023369945
AEROCUBE 7              
1 40966U 15058C   26196.18044997  .00002744  00000+0  22457-3 0  9999
2 40966  64.7612 157.1214 0122052  50.7559 310.4311 14.95913679370149
FOX-1A (AO-85)          
1 40967U 15058D   26196.38863535  .00001629  00000+0  15413-3 0  9994
2 40967  64.7725 191.3328 0132381  45.7352 315.4532 14.91088896117770
SINOD-D 1               
1 40968U 15058E   26196.62300250  .00002882  00000+0  23458-3 0  9992
2 40968  64.7735 169.8489 0121067  41.9967 319.0351 14.96090937120912
SNAP-3 ALICE            
1 40970U 15058G   26196.88791936  .00093171  00000+0  83693-3 0  9996
2 40970  64.7494   4.1689 0024740 347.7291  12.3252 15.67357154121377
LMRST-SAT               
1 40971U 15058H   26196.41827396  .00001573  00000+0  15033-3 0  9994
2 40971  64.7732 187.6328 0133919  47.7261 313.5114 14.90704097117761
SNAP-3 EDDIE            
1 40972U 15058J   26196.85487461  .00104454  00000+0  88300-3 0  9997
2 40972  64.7406 354.7889 0025869 350.5303   9.5356 15.68757584123510
PROPCUBE 3              
1 40973U 15058K   26196.91955557  .00002280  00000+0  19493-3 0  9992
2 40973  64.7672 162.7529 0125829  48.7267 312.4601 14.94419440119097
BISONSAT                
1 40974U 15058L   26196.91588398  .00007606  00000+0  36140-3 0  9993
2 40974  64.7583  80.7043 0082192  35.5577 325.0985 15.16943409119976
SNAP-3 JIMI             
1 40975U 15058M   26196.94402064  .00004078  00000+0  28152-3 0  9996
2 40975  64.7652 128.7653 0107917  44.0491 316.9161 15.02615583118548
PROPCUBE 1 (FLORA)      
1 40976U 15058N   26196.73489124  .00001289  00000+0  13093-3 0  9995
2 40976  64.7718 206.7504 0132520  49.8790 311.3844 14.89329619120510
SINOD-D 3               
1 40977U 15058P   26196.68811372  .00002313  00000+0  20105-3 0  9995
2 40977  64.7704 186.8071 0121103  46.9407 314.1768 14.94176369119018
RAVAN                   
1 41849U 16067B   26197.17320507  .00034124  00000+0  46379-3 0  9991
2 41849  97.9840  90.1551 0002367 211.9588 148.1522 15.57535759532205
CELTEE 1                
1 41850U 16067C   26197.11024023  .00002804  00000+0  13406-3 0  9996
2 41850  98.0631  65.6497 0002371 109.2450 250.9040 15.19946149530274
OPTICUBE 04             
1 41851U 16067D   26197.10923491  .00000880  00000+0  58792-4 0  9993
2 41851  98.0673  50.8999 0016106  24.9003 335.2998 15.09773959529534
AEROCUBE 8D             
1 41852U 16067E   26196.44327055  .00003962  00000+0  16320-3 0  9998
2 41852  98.0641  68.7664 0004549  55.8282 304.3385 15.24771509530374
AEROCUBE 8C             
1 41853U 16067F   26197.11971894  .00003865  00000+0  15807-3 0  9991
2 41853  98.0511  66.6845 0004184 338.2351  21.8706 15.25031088530470
CORVUS BC2              
1 42846U 17042X   26196.69162837  .00001182  00000+0  84008-4 0  9999
2 42846  97.4091 356.9404 0013404  21.4439 338.7347 15.06458015491354
CORVUS BC1              
1 42847U 17042Y   26197.01518058  .00001326  00000+0  93422-4 0  9997
2 42847  97.4121 358.0843 0011572 357.2701   2.8462 15.06621873491435
MAKERSAT 0              
1 43016U 17073D   26196.90866995  .00012107  00000+0  31974-3 0  9995
2 43016  97.4576  79.6633 0105468 169.7172 190.6262 15.33023791470860
SIRION PATHFINDER-2     
1 43759U 18099B   26197.11729568  .00001774  00000+0  99040-4 0  9993
2 43759  97.4236 245.4890 0008549 188.1811 171.9283 15.14780657417004
CORVUS BC4              
1 43767U 18099K   26197.03102054  .00001770  00000+0  10469-3 0  9991
2 43767  97.4050 239.1683 0006527 257.3577 102.6924 15.12705555416766
