OBJECT_NAME,OBJECT_ID,EPOCH,MEAN_MOTION,ECCENTRICITY,INCLINATION,RA_OF_ASC_NODE,ARG_OF_PERICENTER,MEAN_ANOMALY,EPHEMERIS_TYPE,CLASSIFICATION_TYPE,NORAD_CAT_ID,ELEMENT_SET_NO,REV_AT_EPOCH,BSTAR,MEAN_MOTION_DOT,MEAN_MOTION_DDOT
POLYITAN-1,2014-033AJ,2026-07-16T00:27:25.994304,15.34238045,.0007858,98.0929,226.0285,61.8331,298.3703,0,U,40042,999,65801,.33885E-3,.11154E-3,0
TIGRISAT,2014-033AK,2026-07-15T21:12:14.619456,14.85250731,.00485818,97.7865,346.2444,342.0708,17.8792,0,U,40043,999,64988,.88309404E-4,.717E-5,0
AEROCUBE 6A,2014-033AM,2026-07-15T22:36:45.427680,14.98348152,.00362563,97.7250,3.5917,278.3903,81.3210,0,U,40045,999,65092,.2686847E-3,.3183E-4,0
AEROCUBE 6B,2014-033AN,2026-07-15T21:59:49.443936,14.99801962,.00380824,97.7202,3.4151,267.4918,92.1945,0,U,40046,999,65106,.20882502E-3,.256E-4,0
CANX-4,2014-034C,2026-07-15T02:48:59.289696,14.81311066,.00114247,98.3083,72.4512,283.1173,76.8763,0,U,40055,999,64866,.61209325E-4,.42E-5,0
CANX-5,2014-034D,2026-07-15T10:52:36.323616,14.81328706,.00114138,98.3085,72.8445,282.1246,77.8687,0,U,40056,999,63952,.59894875E-4,.41E-5,0
UKUBE-1,2014-037F,2026-07-15T22:08:06.319104,15.13955912,.00032624,98.4241,203.2234,86.6441,273.5160,0,U,40074,999,65290,.22669768E-3,.4031E-4,0
BRITE-PL2 (HEWELIUSZ),2014-049B,2026-07-16T02:14:25.453824,14.94688246,.0014249,97.9120,309.3212,19.2816,340.8940,0,U,40119,999,64576,.48579E-4,.468E-5,0
AEROCUBE 5C,2015-058B,2026-07-15T22:26:51.893376,14.91579023,.01323843,64.7657,173.1454,52.1672,309.1334,0,U,40965,999,36994,.16158418E-3,.1741E-4,0
AEROCUBE 7,2015-058C,2026-07-15T04:19:50.877408,14.95913679,.01220529,64.7612,157.1214,50.7559,310.4311,0,U,40966,999,37014,.22456729E-3,.2744E-4,0
FOX-1A (AO-85),2015-058D,2026-07-15T09:19:38.094240,14.91088896,.01323818,64.7725,191.3328,45.7352,315.4532,0,U,40967,999,11777,.15413123E-3,.1629E-4,0
SINOD-D 1,2015-058E,2026-07-15T14:57:07.416000,14.96090937,.01210673,64.7735,169.8489,41.9967,319.0351,0,U,40968,999,12091,.23458403E-3,.2882E-4,0
SNAP-3 ALICE,2015-058G,2026-07-15T21:18:36.232704,15.67357154,.002474,64.7494,4.1689,347.7291,12.3252,0,U,40970,999,12137,.83692925E-3,.93171E-3,0
LMRST-SAT,2015-058H,2026-07-15T10:02:18.870144,14.90704097,.01339193,64.7732,187.6328,47.7261,313.5114,0,U,40971,999,11776,.15033247E-3,.1573E-4,0
SNAP-3 EDDIE,2015-058J,2026-07-15T20:31:01.166304,15.68757584,.00258698,64.7406,354.7889,350.5303,9.5356,0,U,40972,999,12351,.88300439E-3,.104454E-2,0
PROPCUBE 3,2015-058K,2026-07-15T22:04:09.601248,14.94419440,.01258298,64.7672,162.7529,48.7267,312.4601,0,U,40973,999,11909,.19493077E-3,.228E-4,0
BISONSAT,2015-058L,2026-07-15T21:58:52.375872,15.16943409,.00821928,64.7583,80.7043,35.5577,325.0985,0,U,40974,999,11997,.36140172E-3,.7606E-4,0
SNAP-3 JIMI,2015-058M,2026-07-15T22:39:23.383296,15.02615583,.01079178,64.7652,128.7653,44.0491,316.9161,0,U,40975,999,11854,.28151654E-3,.4078E-4,0
PROPCUBE 1 (FLORA),2015-058N,2026-07-15T17:38:14.603136,14.89329619,.01325205,64.7718,206.7504,49.8790,311.3844,0,U,40976,999,12051,.13093257E-3,.1289E-4,0
SINOD-D 3,2015-058P,2026-07-15T16:30:53.025408,14.94176369,.01211031,64.7704,186.8071,46.9407,314.1768,0,U,40977,999,11901,.20105388E-3,.2313E-4,0
RAVAN,2016-067B,2026-07-16T04:09:24.918048,15.57535759,.0002367,97.9840,90.1551,211.9588,148.1522,0,U,41849,999,53220,.46379E-3,.34124E-3,0
CELTEE 1,2016-067C,2026-07-16T02:38:44.755872,15.19946149,.0002371,98.0631,65.6497,109.2450,250.9040,0,U,41850,999,53027,.13406E-3,.2804E-4,0
OPTICUBE 04,2016-067D,2026-07-16T02:37:17.896224,15.09773959,.0016106,98.0673,50.8999,24.9003,335.2998,0,U,41851,999,52953,.58792E-4,.88E-5,0
AEROCUBE 8D,2016-067E,2026-07-15T10:38:18.575520,15.24771509,.0004549,98.0641,68.7664,55.8282,304.3385,0,U,41852,999,53037,.16320115E-3,.3962E-4,0
AEROCUBE 8C,2016-067F,2026-07-16T02:52:23.716416,15.25031088,.0004184,98.0511,66.6845,338.2351,21.8706,0,U,41853,999,53047,.15807E-3,.3865E-4,0
CORVUS BC2,2017-042X,2026-07-15T16:35:56.691168,15.06458015,.0013404,97.4091,356.9404,21.4439,338.7347,0,U,42846,999,49135,.8400815E-4,.1182E-4,0
CORVUS BC1,2017-042Y,2026-07-16T00:21:51.602112,15.06621873,.0011572,97.4121,358.0843,357.2701,2.8462,0,U,42847,999,49143,.93422E-4,.1326E-4,0
MAKERSAT 0,2017-073D,2026-07-15T21:48:29.083680,15.33023791,.0105468,97.4576,79.6633,169.7172,190.6262,0,U,43016,999,47086,.31974E-3,.12107E-3,0
SIRION PATHFINDER-2,2018-099B,2026-07-16T02:48:54.346752,15.14780657,.0008549,97.4236,245.4890,188.1811,171.9283,0,U,43759,999,41700,.9904E-4,.1774E-4,0
CORVUS BC4,2018-099K,2026-07-16T00:44:40.174656,15.12705555,.0006527,97.4050,239.1683,257.3577,102.6924,0,U,43767,999,41676,.10469E-3,.177E-4,0
